IRIDIUM 119             
1 42959U 17061E   24086.32345545  .00000072  00000+0  18816-4 0  9991
2 42959  86.4032   4.9419 0002237  90.1139 270.0313 14.34218359338301
IRIDIUM 107             
1 42960U 17061F   24086.48200784  .00000915  00000+0  31957-3 0  9991
2 42960  86.4037   4.8914 0002535  84.6765 275.4720 14.34206096338330
IRIDIUM 132             
1 42961U 17061G   24086.27905550  .00000701  00000+0  24333-3 0  9995
2 42961  86.4032   4.9614 0002381  88.1782 271.9686 14.34219968338302
IRIDIUM 136             
1 42962U 17061H   24086.52006540  .00000820  00000+0  28583-3 0  9998
2 42962  86.4035   4.8638 0002452  93.2162 266.9314 14.34211043338352
IRIDIUM 125             
1 42964U 17061K   24086.51372963  .00000762  00000+0  26482-3 0  9995
2 42964  86.4034   4.9618 0002388  92.7534 267.3935 14.34221574338373
IRIDIUM 135             
1 43070U 17083A   24086.62738741  .00000692  00000+0  23990-3 0  9993
2 43070  86.3931 301.6143 0002143  76.7770 283.3664 14.34223593327682
IRIDIUM 138             
1 43071U 17083B   24086.58299010  .00000715  00000+0  24824-3 0  9993
2 43071  86.3921 301.3604 0002167  93.7952 266.3492 14.34223215327667
